{
  "norad_id": 57817,
  "name": "STARLINK-30391",
  "history": [
    {
      "epoch": "2026-03-28T09:10:22.588896Z",
      "apogee_km": 483.89748643723397,
      "perigee_km": 482.1769783867139,
      "latitude_deg": 6.60303699602785e-05,
      "longitude_deg": 165.51279497202853,
      "height_km": 482.84162659146966,
      "semi_major_axis_km": 6861.174232411973,
      "eccentricity": 0.00012538,
      "inclination_deg": 43.0023,
      "raan_deg": 128.9103,
      "arg_perigee_deg": 268.1634,
      "mean_anomaly_deg": 91.9075,
      "mean_motion_rev_day": 15.27583962
    },
    {
      "epoch": "2026-03-29T04:00:15.177312Z",
      "apogee_km": 484.17265766957735,
      "perigee_km": 481.77950142743066,
      "latitude_deg": -3.1373937887181065e-05,
      "longitude_deg": -122.16150041696599,
      "height_km": 482.65488749907024,
      "semi_major_axis_km": 6861.113079548504,
      "eccentricity": 0.0001744,
      "inclination_deg": 43.0026,
      "raan_deg": 124.4786,
      "arg_perigee_deg": 274.7204,
      "mean_anomaly_deg": 85.3448,
      "mean_motion_rev_day": 15.27604385
    },
    {
      "epoch": "2026-03-30T03:32:35.040192Z",
      "apogee_km": 484.4214111200572,
      "perigee_km": 481.40940911201596,
      "latitude_deg": -2.060915150610312e-05,
      "longitude_deg": -121.75615659933804,
      "height_km": 482.75739520943927,
      "semi_major_axis_km": 6861.052410116036,
      "eccentricity": 0.0002195,
      "inclination_deg": 42.9982,
      "raan_deg": 118.9334,
      "arg_perigee_deg": 267.5308,
      "mean_anomaly_deg": 92.5292,
      "mean_motion_rev_day": 15.27624647
    },
    {
      "epoch": "2026-03-30T09:49:13.052640Z",
      "apogee_km": 484.1517917745723,
      "perigee_km": 482.07832140307073,
      "latitude_deg": 2.9502722808898055e-05,
      "longitude_deg": 142.35621544573252,
      "height_km": 483.00776448990086,
      "semi_major_axis_km": 6861.252056588821,
      "eccentricity": 0.0001511,
      "inclination_deg": 43.0016,
      "raan_deg": 117.4619,
      "arg_perigee_deg": 263.589,
      "mean_anomaly_deg": 96.479,
      "mean_motion_rev_day": 15.27557972
    },
    {
      "epoch": "2026-03-31T10:55:43.778784Z",
      "apogee_km": 484.2347400834078,
      "perigee_km": 481.7698071879613,
      "latitude_deg": 9.274923805153686e-06,
      "longitude_deg": 118.79089870355918,
      "height_km": 482.7514453509723,
      "semi_major_axis_km": 6861.139273635684,
      "eccentricity": 0.00017963,
      "inclination_deg": 43.0035,
      "raan_deg": 111.5558,
      "arg_perigee_deg": 271.3129,
      "mean_anomaly_deg": 88.7517,
      "mean_motion_rev_day": 15.27595637
    },
    {
      "epoch": "2026-04-01T10:28:04.822752Z",
      "apogee_km": 484.59725165359487,
      "perigee_km": 481.40819391044533,
      "latitude_deg": 2.3455088931502355e-05,
      "longitude_deg": 119.19801219933441,
      "height_km": 482.7049946277248,
      "semi_major_axis_km": 6861.13972278202,
      "eccentricity": 0.0002324,
      "inclination_deg": 43.0051,
      "raan_deg": 106.0173,
      "arg_perigee_deg": 272.7215,
      "mean_anomaly_deg": 87.3371,
      "mean_motion_rev_day": 15.27595487
    },
    {
      "epoch": "2026-04-02T17:51:12.618720Z",
      "apogee_km": 483.6574784524282,
      "perigee_km": 482.2811405267439,
      "latitude_deg": -1.6153450075366634e-05,
      "longitude_deg": -0.2611686581955851,
      "height_km": 482.85682178991965,
      "semi_major_axis_km": 6861.106309489586,
      "eccentricity": 0.0001003,
      "inclination_deg": 43.0026,
      "raan_deg": 98.6296,
      "arg_perigee_deg": 260.7272,
      "mean_anomaly_deg": 99.3466,
      "mean_motion_rev_day": 15.27606646
    },
    {
      "epoch": "2026-04-02T17:51:12.619584Z",
      "apogee_km": 483.65754706349253,
      "perigee_km": 482.2810719156814,
      "latitude_deg": -1.5377656340406458e-05,
      "longitude_deg": -0.2611714407880184,
      "height_km": 482.8568328440658,
      "semi_major_axis_km": 6861.106309489586,
      "eccentricity": 0.00010031,
      "inclination_deg": 43.0026,
      "raan_deg": 98.6296,
      "arg_perigee_deg": 260.7272,
      "mean_anomaly_deg": 99.3466,
      "mean_motion_rev_day": 15.27606646
    },
    {
      "epoch": "2026-04-03T17:23:34.052352Z",
      "apogee_km": 484.0387936088873,
      "perigee_km": 482.0860962468605,
      "latitude_deg": 2.3084755684008016e-05,
      "longitude_deg": 0.14114233859119327,
      "height_km": 482.835683620941,
      "semi_major_axis_km": 6861.199444927874,
      "eccentricity": 0.0001423,
      "inclination_deg": 43.0004,
      "raan_deg": 93.0879,
      "arg_perigee_deg": 89.9636,
      "mean_anomaly_deg": 270.1379,
      "mean_motion_rev_day": 15.27575542
    }
  ]
}